KUIPER-00165            
1 65778U 25217S   25296.60936617  .00018789  00000+0  52608-3 0  9998
2 65778  51.8708 306.7664 0003809 156.6334 203.4826 15.36660259  4332
KUIPER-00166            
1 65779U 25217T   25296.53874520  .00028414  00000+0  78098-3 0  9992
2 65779  51.8717 307.0448 0003353 130.2658 229.8622 15.36982797  4327
KUIPER-00167            
1 65780U 25217U   25296.62359160  .00020188  00000+0  57853-3 0  9998
2 65780  51.8693 306.8554 0005267 194.3377 165.7461 15.35877748  4330
KUIPER-00168            
1 65781U 25217V   25296.59139304  .00048702  00000+0  13023-2 0  9993
2 65781  51.8725 306.6506 0002615  69.7657 290.3611 15.37579074  4337
KUIPER-00169            
1 65782U 25217W   25296.54048865  .00021103  00000+0  58550-3 0  9991
2 65782  51.8723 307.0559 0002835 146.2311 213.8856 15.36868399  4321
KUIPER-00170            
1 65783U 25217X   25296.62180819  .00019286  00000+0  55153-3 0  9992
2 65783  51.8681 306.8419 0005738 187.1964 172.8940 15.35972770  4337
KUIPER-00171            
1 65784U 25217Y   25296.66671295  .00748292  00000+0  17249-1 0  9998
2 65784  51.8681 306.4758 0004442 177.1231 146.2332 15.39515356  4468
KUIPER-00172            
1 65785U 25217Z   25296.59790970  .00019648  00000+0  53862-3 0  9992
2 65785  51.8723 306.6924 0002584 117.3752 242.7498 15.37289664  4331
KUIPER-00173            
1 65786U 25217AA  25296.60197355  .00031925  00000+0  87312-3 0  9992
2 65786  51.8710 306.7201 0002667 130.9927 229.1291 15.37078425  4335
KUIPER-00174            
1 65787U 25217AB  25296.59335525  .00033680  00000+0  90854-3 0  9999
2 65787  51.8726 306.6608 0002845  87.6169 272.5143 15.37477663  4332
KUIPER-00176            
1 65788U 25217AC  25296.59765750  .00037042  00000+0  10048-2 0  9999
2 65788  51.8716 306.6915 0002328  92.0901 268.0353 15.37262134  4331
KUIPER-00101            
1 65947U 25228A   25296.66671295  .00032790  00000+0  97503-3 0  9993
2 65947  51.8797 261.7733 0006061 171.7060 268.8372 15.34433121  2414
KUIPER-00113            
1 65948U 25228B   25296.66671295  .00033941  00000+0  10006-2 0  9995
2 65948  51.8802 261.7579 0006485 167.8607 281.6334 15.34684620  2517
KUIPER-00117            
1 65949U 25228C   25296.66671295  .00034859  00000+0  10287-2 0  9996
2 65949  51.8801 261.7605 0006310 168.0009 280.0922 15.34640533  2154
KUIPER-00121            
1 65950U 25228D   25296.66671295  .00031911  00000+0  96057-3 0  9994
2 65950  51.8805 261.8074 0005892 185.7416 240.8414 15.34060957  1495
KUIPER-00122            
1 65951U 25228E   25296.66671295  .00031170  00000+0  94273-3 0  9990
2 65951  51.8794 261.8104 0006316 192.1111 230.7917 15.33920410  1352
KUIPER-00123            
1 65952U 25228F   25296.66671295  .00031302  00000+0  94479-3 0  9996
2 65952  51.8792 261.8006 0005667 180.9618 245.9504 15.33986646  1305
KUIPER-00124            
1 65953U 25228G   25296.66671295  .00031259  00000+0  94655-3 0  9994
2 65953  51.8802 261.8167 0005872 195.3312 225.7393 15.33882936  1304
KUIPER-00125            
1 65954U 25228H   25296.66671295  .00032436  00000+0  96901-3 0  9999
2 65954  51.8794 261.7827 0005889 177.0243 258.5698 15.34291829  2573
KUIPER-00126            
1 65955U 25228J   25296.66671295  .00031311  00000+0  94383-3 0  9993
2 65955  51.8797 261.8090 0006360 190.8307 233.3234 15.34023621  2153
KUIPER-00127            
1 65956U 25228K   25296.66671295  .00037160  00000+0  10978-2 0  9999
2 65956  51.8801 261.7631 0006175 166.8589 280.0860 15.34577586  1583
KUIPER-00128            
1 65957U 25228L   25296.66671295  .00033402  00000+0  99420-3 0  9995
2 65957  51.8803 261.7816 0006019 173.4268 265.6884 15.34393752  2594
KUIPER-00129            
1 65958U 25228M   25296.66671295  .00034200  00000+0  10175-2 0  9992
2 65958  51.8803 261.7770 0006063 168.1735 272.9345 15.34395231  2512
KUIPER-00130            
1 65959U 25228N   25296.66671295  .00035617  00000+0  10649-2 0  9992
2 65959  51.8794 261.7912 0005588 183.1876 248.2931 15.34222217  2402
KUIPER-00134            
1 65960U 25228P   25296.66671295  .00032916  00000+0  98905-3 0  9995
2 65960  51.8792 261.7980 0005482 187.6602 240.5214 15.34104376  2017
KUIPER-00135            
1 65961U 25228Q   25296.66671295  .00031524  00000+0  94814-3 0  9995
2 65961  51.8807 261.7999 0005330 175.4095 255.0995 15.34095451  1905
KUIPER-00136            
1 65962U 25228R   25296.66671295  .00035594  00000+0  10537-2 0  9996
2 65962  51.8802 261.7696 0006006 171.3636 273.1473 15.34533657  1965
KUIPER-00137            
1 65963U 25228S   25296.66671295  .00034720  00000+0  10395-2 0  9999
2 65963  51.8806 261.7973 0005631 182.9025 248.5356 15.34190319  1680
KUIPER-00138            
1 65964U 25228T   25296.66671295  .00032982  00000+0  99437-3 0  9993
2 65964  51.8795 261.8041 0006176 193.7257 232.2107 15.33993069  1661
KUIPER-00140            
1 65965U 25228U   25296.66671295  .00033829  00000+0  10207-2 0  9992
2 65965  51.8801 261.8136 0005881 195.8380 226.6848 15.33956343  1828
KUIPER-00141            
1 65966U 25228V   25296.66671295  .00036948  00000+0  10991-2 0  9998
2 65966  51.8796 261.7781 0006033 174.0906 263.7423 15.34361482  2186
KUIPER-00146            
1 65967U 25228W   25296.66671295  .00033817  00000+0  10086-2 0  9996
2 65967  51.8805 261.7871 0005983 175.7653 260.8740 15.34323286  2368
KUIPER-00149            
1 65968U 25228X   25296.66671295  .00032619  00000+0  96814-3 0  9990
2 65968  51.8799 261.7685 0005873 172.5486 270.6773 15.34495736  1309
KUIPER-00154            
1 65969U 25228Y   25296.66671295  .00032604  00000+0  96560-3 0  9993
2 65969  51.8799 261.7637 0006086 170.4247 275.2223 15.34563143  1653
KUIPER-00157            
1 65970U 25228Z   25296.66671295  .00035023  00000+0  10510-2 0  9993
2 65970  51.8806 261.8054 0006058 187.8217 239.6687 15.34112210  2560
